{"type": "FeatureCollection", "features": [ {"type": "Feature", "properties": {"norad_id": 36402, "name": "COSMOS 2460 (732)", "group": "gnss", "lat": -56.222390736418916, "lon": -176.36673999125722, "alt_km": 19129.37322041255, "timestamp": "2025-12-13T15:35:12.349149+00:00", "meta": {"OBJECT_NAME": "COSMOS 2460 (732)", "OBJECT_ID": "2010-007C", "EPOCH": "2025-12-09T19:21:37.643616", "MEAN_MOTION": 2.13105924, "ECCENTRICITY": 0.00027883, "INCLINATION": 65.5316, "RA_OF_ASC_NODE": 320.8726, "ARG_OF_PERICENTER": 272.035, "MEAN_ANOMALY": 265.828, "EPHEMERIS_TYPE": 0, "CLASSIFICATION_TYPE": "U", "NORAD_CAT_ID": 36402, "ELEMENT_SET_NO": 999, "REV_AT_EPOCH": 12269, "BSTAR": 0, "MEAN_MOTION_DOT": -4.9e-07, "MEAN_MOTION_DDOT": 0}, "tle": {"line1": "1 36402U 10007C   25343.80668569 -.00000049  00000+0  00000+0 0  9990", "line2": "2 36402  65.5316 320.8726 0002788 272.0350 265.8280  2.13105924122693"}}, "geometry": {"type": "Point", "coordinates": [-176.36673999125722, -56.222390736418916]}}, {"type": "Feature", "properties": {"norad_id": 36585, "name": "GPS BIIF-1  (PRN 25)", "group": "gnss", "lat": 43.600695145458694, "lon": -7.136791832031087, "alt_km": 19991.450154264236, "timestamp": "2025-12-13T15:35:12.349160+00:00", "meta": {"OBJECT_NAME": "GPS BIIF-1  (PRN 25)", "OBJECT_ID": "2010-022A", "EPOCH": "2025-12-12T05:36:38.844288", "MEAN_MOTION": 2.00553206, "ECCENTRICITY": 0.01260874, "INCLINATION": 54.3002, "RA_OF_ASC_NODE": 216.0943, "ARG_OF_PERICENTER": 65.0648, "MEAN_ANOMALY": 113.509, "EPHEMERIS_TYPE": 0, "CLASSIFICATION_TYPE": "U", "NORAD_CAT_ID": 36585, "ELEMENT_SET_NO": 999, "REV_AT_EPOCH": 11384, "BSTAR": 0, "MEAN_MOTION_DOT": 2.2e-07, "MEAN_MOTION_DDOT": 0}, "tle": {"line1": "1 36585U 10022A   25346.23378292  .00000022  00000+0  00000+0 0  9990", "line2": "2 36585  54.3002 216.0943 0126087  65.0648 113.5090  2.00553206113840"}}, "geometry": {"type": "Point", "coordinates": [-7.136791832031087, 43.600695145458694]}}, {"type": "Feature", "properties": {"norad_id": 36828, "name": "BEIDOU-2 IGSO-1 (C06)", "group": "gnss", "lat": -53.05491613289962, "lon": 57.91964417023595, "alt_km": 35635.92462878024, "timestamp": "2025-12-13T15:35:12.349172+00:00", "meta": {"OBJECT_NAME": "BEIDOU-2 IGSO-1 (C06)", "OBJECT_ID": "2010-036A", "EPOCH": "2025-12-12T21:56:21.549120", "MEAN_MOTION": 1.00276081, "ECCENTRICITY": 0.00512083, "INCLINATION": 54.2861, "RA_OF_ASC_NODE": 164.6456, "ARG_OF_PERICENTER": 215.8019, "MEAN_ANOMALY": 138.385, "EPHEMERIS_TYPE": 0, "CLASSIFICATION_TYPE": "U", "NORAD_CAT_ID": 36828, "ELEMENT_SET_NO": 999, "REV_AT_EPOCH": 5622, "BSTAR": 0, "MEAN_MOTION_DOT": -3.7e-07, "MEAN_MOTION_DDOT": 0}, "tle": {"line1": "1 36828U 10036A   25346.91413830 -.00000037  00000+0  00000+0 0  9995", "line2": "2 36828  54.2861 164.6456 0051208 215.8019 138.3850  1.00276081 56227"}}, "geometry": {"type": "Point", "coordinates": [57.91964417023595, -53.05491613289962]}}, {"type": "Feature", "properties": {"norad_id": 37210, "name": "BEIDOU-2 G4 (C04)", "group": "gnss", "lat": 2.3225589968129756, "lon": 116.33237626349913, "alt_km": 35823.32098140952, "timestamp": "2025-12-13T15:35:12.349185+00:00", "meta": {"OBJECT_NAME": "BEIDOU-2 G4 (C04)", "OBJECT_ID": "2010-057A", "EPOCH": "2025-12-12T22:48:10.954656", "MEAN_MOTION": 1.00271593, "ECCENTRICITY": 0.00108604, "INCLINATION": 3.1855, "RA_OF_ASC_NODE": 69.9384, "ARG_OF_PERICENTER": 191.083, "MEAN_ANOMALY": 322.988, "EPHEMERIS_TYPE": 0, "CLASSIFICATION_TYPE": "U", "NORAD_CAT_ID": 37210, "ELEMENT_SET_NO": 999, "REV_AT_EPOCH": 5542, "BSTAR": 0, "MEAN_MOTION_DOT": -1e-06, "MEAN_MOTION_DDOT": 0}, "tle": {"line1": "1 37210U 10057A   25346.95012679 -.00000100  00000+0  00000+0 0  9995", "line2": "2 37210   3.1855  69.9384 0010860 191.0830 322.9880  1.00271593 55429"}}, "geometry": {"type": "Point", "coordinates": [116.33237626349913, 2.3225589968129756]}}, {"type": "Feature", "properties": {"norad_id": 37256, "name": "BEIDOU-2 IGSO-2 (C07)", "group": "gnss", "lat": 22.201557403705895, "lon": 72.4908167508238, "alt_km": 35696.95838233225, "timestamp": "2025-12-13T15:35:12.349197+00:00", "meta": {"OBJECT_NAME": "BEIDOU-2 IGSO-2 (C07)", "OBJECT_ID": "2010-068A", "EPOCH": "2025-12-03T17:22:36.027840", "MEAN_MOTION": 1.0028872, "ECCENTRICITY": 0.00492449, "INCLINATION": 47.9042, "RA_OF_ASC_NODE": 274.2614, "ARG_OF_PERICENTER": 216.1411, "MEAN_ANOMALY": 310.24, "EPHEMERIS_TYPE": 0, "CLASSIFICATION_TYPE": "U", "NORAD_CAT_ID": 37256, "ELEMENT_SET_NO": 999, "REV_AT_EPOCH": 5483, "BSTAR": 0, "MEAN_MOTION_DOT": -2.25e-06, "MEAN_MOTION_DDOT": 0}, "tle": {"line1": "1 37256U 10068A   25337.72402810 -.00000225  00000+0  00000+0 0  9990", "line2": "2 37256  47.9042 274.2614 0049244 216.1411 310.2400  1.00288720 54834"}}, "geometry": {"type": "Point", "coordinates": [72.4908167508238, 22.201557403705895]}}, {"type": "Feature", "properties": {"norad_id": 37384, "name": "BEIDOU-2 IGSO-3 (C08)", "group": "gnss", "lat": 19.207104840773166, "lon": 52.537069467081935, "alt_km": 35929.730329887905, "timestamp": "2025-12-13T15:35:12.349211+00:00", "meta": {"OBJECT_NAME": "BEIDOU-2 IGSO-3 (C08)", "OBJECT_ID": "2011-013A", "EPOCH": "2025-12-12T16:08:36.948768", "MEAN_MOTION": 1.0027095, "ECCENTRICITY": 0.00354506, "INCLINATION": 62.1436, "RA_OF_ASC_NODE": 41.9157, "ARG_OF_PERICENTER": 187.5119, "MEAN_ANOMALY": 201.8968, "EPHEMERIS_TYPE": 0, "CLASSIFICATION_TYPE": "U", "NORAD_CAT_ID": 37384, "ELEMENT_SET_NO": 999, "REV_AT_EPOCH": 5379, "BSTAR": 0, "MEAN_MOTION_DOT": -1.97e-06, "MEAN_MOTION_DDOT": 0}, "tle": {"line1": "1 37384U 11013A   25346.67264987 -.00000197  00000+0  00000+0 0  9996", "line2": "2 37384  62.1436  41.9157 0035450 187.5119 201.8968  1.00270950 53797"}}, "geometry": {"type": "Point", "coordinates": [52.537069467081935, 19.207104840773166]}}, {"type": "Feature", "properties": {"norad_id": 37605, "name": "GSAT-8 (GAGAN/PRN 127)", "group": "gnss", "lat": -1.5654398024305898, "lon": 11.556882389516355, "alt_km": 35795.057665067245, "timestamp": "2025-12-13T15:35:12.349222+00:00", "meta": {"OBJECT_NAME": "GSAT-8 (GAGAN/PRN 127)", "OBJECT_ID": "2011-022A", "EPOCH": "2025-12-12T22:18:10.564416", "MEAN_MOTION": 1.00271426, "ECCENTRICITY": 0.00087287, "INCLINATION": 1.6505, "RA_OF_ASC_NODE": 84.1936, "ARG_OF_PERICENTER": 183.7037, "MEAN_ANOMALY": 203.5943, "EPHEMERIS_TYPE": 0, "CLASSIFICATION_TYPE": "U", "NORAD_CAT_ID": 37605, "ELEMENT_SET_NO": 999, "REV_AT_EPOCH": 5135, "BSTAR": 0, "MEAN_MOTION_DOT": 9.7e-07, "MEAN_MOTION_DDOT": 0}, "tle": {"line1": "1 37605U 11022A   25346.92928894  .00000097  00000+0  00000+0 0  9992", "line2": "2 37605   1.6505  84.1936 0008728 183.7037 203.5943  1.00271426 51358"}}, "geometry": {"type": "Point", "coordinates": [11.556882389516355, -1.5654398024305898]}}, {"type": "Feature", "properties": {"norad_id": 37763, "name": "BEIDOU-2 IGSO-4 (C09)", "group": "gnss", "lat": -46.9977605945465, "lon": 37.14561571249177, "alt_km": 35176.534238969594, "timestamp": "2025-12-13T15:35:12.349235+00:00", "meta": {"OBJECT_NAME": "BEIDOU-2 IGSO-4 (C09)", "OBJECT_ID": "2011-038A", "EPOCH": "2025-12-10T12:04:03.489024", "MEAN_MOTION": 1.00284678, "ECCENTRICITY": 0.01490344, "INCLINATION": 54.5829, "RA_OF_ASC_NODE": 167.3658, "ARG_OF_PERICENTER": 230.2355, "MEAN_ANOMALY": 317.2212, "EPHEMERIS_TYPE": 0, "CLASSIFICATION_TYPE": "U", "NORAD_CAT_ID": 37763, "ELEMENT_SET_NO": 999, "REV_AT_EPOCH": 5275, "BSTAR": 0, "MEAN_MOTION_DOT": 3.6e-07, "MEAN_MOTION_DDOT": 0}, "tle": {"line1": "1 37763U 11038A   25344.50281816  .00000036  00000+0  00000+0 0  9995", "line2": "2 37763  54.5829 167.3658 0149034 230.2355 317.2212  1.00284678 52751"}}, "geometry": {"type": "Point", "coordinates": [37.14561571249177, -46.9977605945465]}}, {"type": "Feature", "properties": {"norad_id": 37846, "name": "GSAT0101 (GALILEO-PFM)", "group": "gnss", "lat": 55.858958045598754, "lon": 93.76652827149371, "alt_km": 23222.877641128278, "timestamp": "2025-12-13T15:35:12.349248+00:00", "meta": {"OBJECT_NAME": "GSAT0101 (GALILEO-PFM)", "OBJECT_ID": "2011-060A", "EPOCH": "2025-12-12T21:37:17.076576", "MEAN_MOTION": 1.70475738, "ECCENTRICITY": 0.0003031, "INCLINATION": 57.0527, "RA_OF_ASC_NODE": 346.8154, "ARG_OF_PERICENTER": 315.2327, "MEAN_ANOMALY": 44.7614, "EPHEMERIS_TYPE": 0, "CLASSIFICATION_TYPE": "U", "NORAD_CAT_ID": 37846, "ELEMENT_SET_NO": 999, "REV_AT_EPOCH": 8794, "BSTAR": 0, "MEAN_MOTION_DOT": -8.7e-07, "MEAN_MOTION_DDOT": 0}, "tle": {"line1": "1 37846U 11060A   25346.90089209 -.00000087  00000+0  00000+0 0  9997", "line2": "2 37846  57.0527 346.8154 0003031 315.2327  44.7614  1.70475738 87943"}}, "geometry": {"type": "Point", "coordinates": [93.76652827149371, 55.858958045598754]}}, {"type": "Feature", "properties": {"norad_id": 37847, "name": "GSAT0102 (GALILEO-FM2)", "group": "gnss", "lat": 28.8633224648566, "lon": 145.84993022895156, "alt_km": 23232.692493949373, "timestamp": "2025-12-13T15:35:12.349259+00:00", "meta": {"OBJECT_NAME": "GSAT0102 (GALILEO-FM2)", "OBJECT_ID": "2011-060B", "EPOCH": "2025-12-12T05:47:25.345248", "MEAN_MOTION": 1.70475905, "ECCENTRICITY": 0.00049802, "INCLINATION": 57.0536, "RA_OF_ASC_NODE": 346.8337, "ARG_OF_PERICENTER": 309.4177, "MEAN_ANOMALY": 51.2149, "EPHEMERIS_TYPE": 0, "CLASSIFICATION_TYPE": "U", "NORAD_CAT_ID": 37847, "ELEMENT_SET_NO": 999, "REV_AT_EPOCH": 8794, "BSTAR": 0, "MEAN_MOTION_DOT": -8.7e-07, "MEAN_MOTION_DDOT": 0}, "tle": {"line1": "1 37847U 11060B   25346.24126557 -.00000087  00000+0  00000+0 0  9993", "line2": "2 37847  57.0536 346.8337 0004980 309.4177  51.2149  1.70475905 87941"}}, "geometry": {"type": "Point", "coordinates": [145.84993022895156, 28.8633224648566]}}]}